{
  "type": "FeatureCollection",
  "features": [
    {
      "type": "Feature",
      "properties": {
        "norad_id": 33901,
        "name": "COSMOS 2251 DEB",
        "group": "cosmos-2251-debris",
        "lat": -37.44964527614392,
        "lon": 5.4281985367575505,
        "alt_km": 539.8447625734843,
        "timestamp": "2025-12-27T08:36:18.777568+00:00",
        "meta_object_name": "COSMOS 2251 DEB",
        "meta_object_id": "1993-036DE",
        "meta_epoch": "2025-12-27T04:01:56.065728",
        "meta_mean_motion": 15.17459134,
        "meta_eccentricity": 0.0029692,
        "meta_inclination": 73.774,
        "meta_ra_of_asc_node": 18.7208,
        "meta_arg_of_pericenter": 147.5834,
        "meta_mean_anomaly": 212.7193,
        "meta_ephemeris_type": 0,
        "meta_classification_type": "U",
        "meta_norad_cat_id": 33901,
        "meta_element_set_no": 999,
        "meta_rev_at_epoch": 89732,
        "meta_bstar": 0.0032094,
        "meta_mean_motion_dot": 0.00065552,
        "meta_mean_motion_ddot": 0,
        "tle_line1": "1 33901U 93036DE  25361.16801002  .00065552  00000+0  32094-2 0  9994",
        "tle_line2": "2 33901  73.7740  18.7208 0029692 147.5834 212.7193 15.17459134897326"
      },
      "geometry": {
        "type": "Point",
        "coordinates": [
          5.4281985367575505,
          -37.44964527614392
        ]
      }
    },
    {
      "type": "Feature",
      "properties": {
        "norad_id": 33905,
        "name": "COSMOS 2251 DEB",
        "group": "cosmos-2251-debris",
        "lat": 72.42559520333825,
        "lon": -4.536802476284121,
        "alt_km": 768.236380631176,
        "timestamp": "2025-12-27T08:36:18.777579+00:00",
        "meta_object_name": "COSMOS 2251 DEB",
        "meta_object_id": "1993-036DJ",
        "meta_epoch": "2025-12-26T20:46:27.325056",
        "meta_mean_motion": 14.35432375,
        "meta_eccentricity": 0.00580339,
        "meta_inclination": 73.887,
        "meta_ra_of_asc_node": 290.4981,
        "meta_arg_of_pericenter": 176.9413,
        "meta_mean_anomaly": 240.2772,
        "meta_ephemeris_type": 0,
        "meta_classification_type": "U",
        "meta_norad_cat_id": 33905,
        "meta_element_set_no": 999,
        "meta_rev_at_epoch": 87890,
        "meta_bstar": 0.00057360443,
        "meta_mean_motion_dot": 1.653e-05,
        "meta_mean_motion_ddot": 0,
        "tle_line1": "1 33905U 93036DJ  25360.86559404  .00001653  00000+0  57360-3 0  9996",
        "tle_line2": "2 33905  73.8870 290.4981 0058033 176.9413 240.2772 14.35432375878901"
      },
      "geometry": {
        "type": "Point",
        "coordinates": [
          -4.536802476284121,
          72.42559520333825
        ]
      }
    },
    {
      "type": "Feature",
      "properties": {
        "norad_id": 33906,
        "name": "COSMOS 2251 DEB",
        "group": "cosmos-2251-debris",
        "lat": 33.10555009465542,
        "lon": -55.5479543560008,
        "alt_km": 691.9811384233208,
        "timestamp": "2025-12-27T08:36:18.777589+00:00",
        "meta_object_name": "COSMOS 2251 DEB",
        "meta_object_id": "1993-036DK",
        "meta_epoch": "2025-12-27T04:01:22.559808",
        "meta_mean_motion": 14.57333869,
        "meta_eccentricity": 0.003692,
        "meta_inclination": 74.0299,
        "meta_ra_of_asc_node": 294.0533,
        "meta_arg_of_pericenter": 321.421,
        "meta_mean_anomaly": 151.606,
        "meta_ephemeris_type": 0,
        "meta_classification_type": "U",
        "meta_norad_cat_id": 33906,
        "meta_element_set_no": 999,
        "meta_rev_at_epoch": 88218,
        "meta_bstar": 0.0022406,
        "meta_mean_motion_dot": 0.00010228,
        "meta_mean_motion_ddot": 0,
        "tle_line1": "1 33906U 93036DK  25361.16762222  .00010228  00000+0  22406-2 0  9995",
        "tle_line2": "2 33906  74.0299 294.0533 0036920 321.4210 151.6060 14.57333869882188"
      },
      "geometry": {
        "type": "Point",
        "coordinates": [
          -55.5479543560008,
          33.10555009465542
        ]
      }
    },
    {
      "type": "Feature",
      "properties": {
        "norad_id": 33907,
        "name": "COSMOS 2251 DEB",
        "group": "cosmos-2251-debris",
        "lat": 43.63603911636806,
        "lon": 22.899464542179352,
        "alt_km": 707.0643171555503,
        "timestamp": "2025-12-27T08:36:18.777599+00:00",
        "meta_object_name": "COSMOS 2251 DEB",
        "meta_object_id": "1993-036DL",
        "meta_epoch": "2025-12-27T00:08:15.059040",
        "meta_mean_motion": 14.30644428,
        "meta_eccentricity": 0.0111987,
        "meta_inclination": 74.0707,
        "meta_ra_of_asc_node": 7.7383,
        "meta_arg_of_pericenter": 58.9517,
        "meta_mean_anomaly": 330.842,
        "meta_ephemeris_type": 0,
        "meta_classification_type": "U",
        "meta_norad_cat_id": 33907,
        "meta_element_set_no": 999,
        "meta_rev_at_epoch": 86784,
        "meta_bstar": 0.0024635,
        "meta_mean_motion_dot": 6.873e-05,
        "meta_mean_motion_ddot": 0,
        "tle_line1": "1 33907U 93036DL  25361.00572985  .00006873  00000+0  24635-2 0  9991",
        "tle_line2": "2 33907  74.0707   7.7383 0111987  58.9517 330.8420 14.30644428867848"
      },
      "geometry": {
        "type": "Point",
        "coordinates": [
          22.899464542179352,
          43.63603911636806
        ]
      }
    },
    {
      "type": "Feature",
      "properties": {
        "norad_id": 33908,
        "name": "COSMOS 2251 DEB",
        "group": "cosmos-2251-debris",
        "lat": -55.842271179719326,
        "lon": 154.51947407893914,
        "alt_km": 898.8808853756136,
        "timestamp": "2025-12-27T08:36:18.777609+00:00",
        "meta_object_name": "COSMOS 2251 DEB",
        "meta_object_id": "1993-036DM",
        "meta_epoch": "2025-12-26T22:39:35.063712",
        "meta_mean_motion": 14.07466814,
        "meta_eccentricity": 0.0222025,
        "meta_inclination": 73.8369,
        "meta_ra_of_asc_node": 180.5584,
        "meta_arg_of_pericenter": 201.483,
        "meta_mean_anomaly": 157.6881,
        "meta_ephemeris_type": 0,
        "meta_classification_type": "U",
        "meta_norad_cat_id": 33908,
        "meta_element_set_no": 999,
        "meta_rev_at_epoch": 85673,
        "meta_bstar": 0.0032665,
        "meta_mean_motion_dot": 6.868e-05,
        "meta_mean_motion_ddot": 0,
        "tle_line1": "1 33908U 93036DM  25360.94415583  .00006868  00000+0  32665-2 0  9990",
        "tle_line2": "2 33908  73.8369 180.5584 0222025 201.4830 157.6881 14.07466814856739"
      },
      "geometry": {
        "type": "Point",
        "coordinates": [
          154.51947407893914,
          -55.842271179719326
        ]
      }
    },
    {
      "type": "Feature",
      "properties": {
        "norad_id": 33911,
        "name": "COSMOS 2251 DEB",
        "group": "cosmos-2251-debris",
        "lat": 21.60313919826412,
        "lon": 139.86499841380575,
        "alt_km": 636.3610617718823,
        "timestamp": "2025-12-27T08:36:18.777620+00:00",
        "meta_object_name": "COSMOS 2251 DEB",
        "meta_object_id": "1993-036DQ",
        "meta_epoch": "2025-12-27T03:54:14.904000",
        "meta_mean_motion": 14.75237638,
        "meta_eccentricity": 0.0014082,
        "meta_inclination": 74.0902,
        "meta_ra_of_asc_node": 133.7611,
        "meta_arg_of_pericenter": 63.8284,
        "meta_mean_anomaly": 359.0444,
        "meta_ephemeris_type": 0,
        "meta_classification_type": "U",
        "meta_norad_cat_id": 33911,
        "meta_element_set_no": 999,
        "meta_rev_at_epoch": 88857,
        "meta_bstar": 0.0026763,
        "meta_mean_motion_dot": 0.00018151,
        "meta_mean_motion_ddot": 0,
        "tle_line1": "1 33911U 93036DQ  25361.16267250  .00018151  00000+0  26763-2 0  9995",
        "tle_line2": "2 33911  74.0902 133.7611 0014082  63.8284 359.0444 14.75237638888570"
      },
      "geometry": {
        "type": "Point",
        "coordinates": [
          139.86499841380575,
          21.60313919826412
        ]
      }
    },
    {
      "type": "Feature",
      "properties": {
        "norad_id": 33912,
        "name": "COSMOS 2251 DEB",
        "group": "cosmos-2251-debris",
        "lat": 42.72407929564999,
        "lon": -33.14628264100384,
        "alt_km": 717.5367277706782,
        "timestamp": "2025-12-27T08:36:18.777630+00:00",
        "meta_object_name": "COSMOS 2251 DEB",
        "meta_object_id": "1993-036DR",
        "meta_epoch": "2025-12-26T12:26:23.449344",
        "meta_mean_motion": 14.51975431,
        "meta_eccentricity": 0.0011258,
        "meta_inclination": 74.0335,
        "meta_ra_of_asc_node": 163.7682,
        "meta_arg_of_pericenter": 243.0347,
        "meta_mean_anomaly": 181.9648,
        "meta_ephemeris_type": 0,
        "meta_classification_type": "U",
        "meta_norad_cat_id": 33912,
        "meta_element_set_no": 999,
        "meta_rev_at_epoch": 88633,
        "meta_bstar": 0.0008558,
        "meta_mean_motion_dot": 3.432e-05,
        "meta_mean_motion_ddot": 0,
        "tle_line1": "1 33912U 93036DR  25360.51832696  .00003432  00000+0  85580-3 0  9995",
        "tle_line2": "2 33912  74.0335 163.7682 0011258 243.0347 181.9648 14.51975431886330"
      },
      "geometry": {
        "type": "Point",
        "coordinates": [
          -33.14628264100384,
          42.72407929564999
        ]
      }
    }
  ]
}